CCSDS_OMM_VERS = 2.0
CREATION_DATE  = 
ORIGINATOR     = 

OBJECT_NAME    = ATLAS CENTAUR R/B
OBJECT_ID      = 1972-065B
CENTER_NAME    = EARTH
REF_FRAME      = TEME
TIME_SYSTEM    = UTC
MEAN_ELEMENT_THEORY = SGP/SGP4

EPOCH          = 2026-01-18T21:27:52.853472
MEAN_MOTION    = 14.77515667
ECCENTRICITY   = .00344381
INCLINATION    = 35.0005
RA_OF_ASC_NODE = 237.5382
ARG_OF_PERICENTER = 310.4852
MEAN_ANOMALY   = 49.2849

EPHEMERIS_TYPE = 0
CLASSIFICATION_TYPE = U
NORAD_CAT_ID   = 6155
ELEMENT_SET_NO = 999
REV_AT_EPOCH   = 83389
BSTAR          = .11928105E-3
MEAN_MOTION_DOT = .849E-5
MEAN_MOTION_DDOT = 0

CCSDS_OMM_VERS = 2.0
CREATION_DATE  = 
ORIGINATOR     = 

OBJECT_NAME    = SL-8 R/B
OBJECT_ID      = 1975-112B
CENTER_NAME    = EARTH
REF_FRAME      = TEME
TIME_SYSTEM    = UTC
MEAN_ELEMENT_THEORY = SGP/SGP4

EPOCH          = 2026-01-18T23:25:58.259136
MEAN_MOTION    = 14.38172103
ECCENTRICITY   = .00162795
INCLINATION    = 74.0611
RA_OF_ASC_NODE = 110.3671
ARG_OF_PERICENTER = 217.8472
MEAN_ANOMALY   = 142.1539

EPHEMERIS_TYPE = 0
CLASSIFICATION_TYPE = U
NORAD_CAT_ID   = 8459
ELEMENT_SET_NO = 999
REV_AT_EPOCH   = 62472
BSTAR          = .85604067E-4
MEAN_MOTION_DOT = .234E-5
MEAN_MOTION_DDOT = 0

CCSDS_OMM_VERS = 2.0
CREATION_DATE  = 
ORIGINATOR     = 

OBJECT_NAME    = SL-3 R/B
OBJECT_ID      = 1977-057B
CENTER_NAME    = EARTH
REF_FRAME      = TEME
TIME_SYSTEM    = UTC
MEAN_ELEMENT_THEORY = SGP/SGP4

EPOCH          = 2026-01-18T23:16:23.925504
MEAN_MOTION    = 15.43938103
ECCENTRICITY   = .00085784
INCLINATION    = 97.5700
RA_OF_ASC_NODE = 188.7807
ARG_OF_PERICENTER = 100.9730
MEAN_ANOMALY   = 259.2483

EPHEMERIS_TYPE = 0
CLASSIFICATION_TYPE = U
NORAD_CAT_ID   = 10114
ELEMENT_SET_NO = 999
REV_AT_EPOCH   = 66065
BSTAR          = .27439125E-3
MEAN_MOTION_DOT = .12408E-3
MEAN_MOTION_DDOT = 0

CCSDS_OMM_VERS = 2.0
CREATION_DATE  = 
ORIGINATOR     = 

OBJECT_NAME    = SEASAT 1
OBJECT_ID      = 1978-064A
CENTER_NAME    = EARTH
REF_FRAME      = TEME
TIME_SYSTEM    = UTC
MEAN_ELEMENT_THEORY = SGP/SGP4

EPOCH          = 2026-01-18T23:13:59.949408
MEAN_MOTION    = 14.46106211
ECCENTRICITY   = .00011958
INCLINATION    = 108.0163
RA_OF_ASC_NODE = 21.1502
ARG_OF_PERICENTER = 280.5838
MEAN_ANOMALY   = 79.5172

EPHEMERIS_TYPE = 0
CLASSIFICATION_TYPE = U
NORAD_CAT_ID   = 10967
ELEMENT_SET_NO = 999
REV_AT_EPOCH   = 49932
BSTAR          = .10866514E-3
MEAN_MOTION_DOT = .251E-5
MEAN_MOTION_DDOT = 0

CCSDS_OMM_VERS = 2.0
CREATION_DATE  = 
ORIGINATOR     = 

OBJECT_NAME    = SL-14 R/B
OBJECT_ID      = 1979-011B
CENTER_NAME    = EARTH
REF_FRAME      = TEME
TIME_SYSTEM    = UTC
MEAN_ELEMENT_THEORY = SGP/SGP4

EPOCH          = 2026-01-18T19:31:16.036320
MEAN_MOTION    = 14.91827224
ECCENTRICITY   = .0015103
INCLINATION    = 82.5259
RA_OF_ASC_NODE = 143.8846
ARG_OF_PERICENTER = 220.1961
MEAN_ANOMALY   = 139.8143

EPHEMERIS_TYPE = 0
CLASSIFICATION_TYPE = U
NORAD_CAT_ID   = 11267
ELEMENT_SET_NO = 999
REV_AT_EPOCH   = 52134
BSTAR          = .59554804E-4
MEAN_MOTION_DOT = .627E-5
MEAN_MOTION_DDOT = 0

CCSDS_OMM_VERS = 2.0
CREATION_DATE  = 
ORIGINATOR     = 

OBJECT_NAME    = SL-8 R/B
OBJECT_ID      = 1979-089B
CENTER_NAME    = EARTH
REF_FRAME      = TEME
TIME_SYSTEM    = UTC
MEAN_ELEMENT_THEORY = SGP/SGP4

EPOCH          = 2026-01-18T21:00:48.195648
MEAN_MOTION    = 14.42310653
ECCENTRICITY   = .0015664
INCLINATION    = 74.0678
RA_OF_ASC_NODE = 183.2462
ARG_OF_PERICENTER = 4.0641
MEAN_ANOMALY   = 356.0639

EPHEMERIS_TYPE = 0
CLASSIFICATION_TYPE = U
NORAD_CAT_ID   = 11574
ELEMENT_SET_NO = 999
REV_AT_EPOCH   = 42892
BSTAR          = .12034021E-3
MEAN_MOTION_DOT = .371E-5
MEAN_MOTION_DDOT = 0

CCSDS_OMM_VERS = 2.0
CREATION_DATE  = 
ORIGINATOR     = 

OBJECT_NAME    = SL-14 R/B
OBJECT_ID      = 1980-005B
CENTER_NAME    = EARTH
REF_FRAME      = TEME
TIME_SYSTEM    = UTC
MEAN_ELEMENT_THEORY = SGP/SGP4

EPOCH          = 2026-01-18T22:16:11.326368
MEAN_MOTION    = 14.90845597
ECCENTRICITY   = .00150504
INCLINATION    = 82.5152
RA_OF_ASC_NODE = 354.4246
ARG_OF_PERICENTER = 335.2174
MEAN_ANOMALY   = 24.8320

EPHEMERIS_TYPE = 0
CLASSIFICATION_TYPE = U
NORAD_CAT_ID   = 11672
ELEMENT_SET_NO = 999
REV_AT_EPOCH   = 46907
BSTAR          = .61309353E-4
MEAN_MOTION_DOT = .63E-5
MEAN_MOTION_DDOT = 0

CCSDS_OMM_VERS = 2.0
CREATION_DATE  = 
ORIGINATOR     = 

OBJECT_NAME    = SL-8 R/B
OBJECT_ID      = 1981-003B
CENTER_NAME    = EARTH
REF_FRAME      = TEME
TIME_SYSTEM    = UTC
MEAN_ELEMENT_THEORY = SGP/SGP4

EPOCH          = 2026-01-18T21:38:27.414816
MEAN_MOTION    = 15.08678737
ECCENTRICITY   = .02703224
INCLINATION    = 82.9394
RA_OF_ASC_NODE = 335.9930
ARG_OF_PERICENTER = 352.6062
MEAN_ANOMALY   = 7.1210

EPHEMERIS_TYPE = 0
CLASSIFICATION_TYPE = U
NORAD_CAT_ID   = 12139
ELEMENT_SET_NO = 999
REV_AT_EPOCH   = 30716
BSTAR          = .71423917E-3
MEAN_MOTION_DOT = .26935E-3
MEAN_MOTION_DDOT = 0

CCSDS_OMM_VERS = 2.0
CREATION_DATE  = 
ORIGINATOR     = 

OBJECT_NAME    = SL-3 R/B
OBJECT_ID      = 1981-046B
CENTER_NAME    = EARTH
REF_FRAME      = TEME
TIME_SYSTEM    = UTC
MEAN_ELEMENT_THEORY = SGP/SGP4

EPOCH          = 2026-01-18T22:11:05.539488
MEAN_MOTION    = 15.40492362
ECCENTRICITY   = .00189876
INCLINATION    = 81.2333
RA_OF_ASC_NODE = 349.4208
ARG_OF_PERICENTER = 186.8494
MEAN_ANOMALY   = 173.2492

EPHEMERIS_TYPE = 0
CLASSIFICATION_TYPE = U
NORAD_CAT_ID   = 12465
ELEMENT_SET_NO = 999
REV_AT_EPOCH   = 43076
BSTAR          = .27500218E-3
MEAN_MOTION_DOT = .11253E-3
MEAN_MOTION_DDOT = 0

CCSDS_OMM_VERS = 2.0
CREATION_DATE  = 
ORIGINATOR     = 

OBJECT_NAME    = SL-3 R/B
OBJECT_ID      = 1981-103B
CENTER_NAME    = EARTH
REF_FRAME      = TEME
TIME_SYSTEM    = UTC
MEAN_ELEMENT_THEORY = SGP/SGP4

EPOCH          = 2026-01-18T23:22:21.080640
MEAN_MOTION    = 15.20711066
ECCENTRICITY   = .00144759
INCLINATION    = 81.1591
RA_OF_ASC_NODE = 271.7352
ARG_OF_PERICENTER = 91.4231
MEAN_ANOMALY   = 268.8658

EPHEMERIS_TYPE = 0
CLASSIFICATION_TYPE = U
NORAD_CAT_ID   = 12904
ELEMENT_SET_NO = 999
REV_AT_EPOCH   = 96567
BSTAR          = .24777077E-3
MEAN_MOTION_DOT = .5487E-4
MEAN_MOTION_DDOT = 0

CCSDS_OMM_VERS = 2.0
CREATION_DATE  = 
ORIGINATOR     = 

OBJECT_NAME    = SL-3 R/B
OBJECT_ID      = 1982-013B
CENTER_NAME    = EARTH
REF_FRAME      = TEME
TIME_SYSTEM    = UTC
MEAN_ELEMENT_THEORY = SGP/SGP4

EPOCH          = 2026-01-18T22:30:38.354688
MEAN_MOTION    = 15.21431081
ECCENTRICITY   = .00226483
INCLINATION    = 81.1720
RA_OF_ASC_NODE = 219.0564
ARG_OF_PERICENTER = 349.8547
MEAN_ANOMALY   = 10.2223

EPHEMERIS_TYPE = 0
CLASSIFICATION_TYPE = U
NORAD_CAT_ID   = 13068
ELEMENT_SET_NO = 999
REV_AT_EPOCH   = 39678
BSTAR          = .15997393E-3
MEAN_MOTION_DOT = .3641E-4
MEAN_MOTION_DDOT = 0

CCSDS_OMM_VERS = 2.0
CREATION_DATE  = 
ORIGINATOR     = 

OBJECT_NAME    = SL-3 R/B
OBJECT_ID      = 1982-039B
CENTER_NAME    = EARTH
REF_FRAME      = TEME
TIME_SYSTEM    = UTC
MEAN_ELEMENT_THEORY = SGP/SGP4

EPOCH          = 2026-01-18T22:56:02.946624
MEAN_MOTION    = 15.09763692
ECCENTRICITY   = .00299754
INCLINATION    = 81.1671
RA_OF_ASC_NODE = 273.2699
ARG_OF_PERICENTER = 127.2114
MEAN_ANOMALY   = 233.1854

EPHEMERIS_TYPE = 0
CLASSIFICATION_TYPE = U
NORAD_CAT_ID   = 13154
ELEMENT_SET_NO = 999
REV_AT_EPOCH   = 37413
BSTAR          = .15030265E-3
MEAN_MOTION_DOT = .2475E-4
MEAN_MOTION_DDOT = 0

