ATLAS CENTAUR R/B       
1 06155U 72065B   26018.89436173  .00000849  00000+0  11928-3 0  9999
2 06155  35.0005 237.5382 0034438 310.4852  49.2849 14.77515667833893
SL-8 R/B                
1 08459U 75112B   26018.97636874  .00000234  00000+0  85604-4 0  9994
2 08459  74.0611 110.3671 0016279 217.8472 142.1539 14.38172103624728
SL-3 R/B                
1 10114U 77057B   26018.96972136  .00012408  00000+0  27439-3 0  9995
2 10114  97.5700 188.7807 0008578 100.9730 259.2483 15.43938103660657
SEASAT 1                
1 10967U 78064A   26018.96805497  .00000251  00000+0  10867-3 0  9995
2 10967 108.0163  21.1502 0001195 280.5838  79.5172 14.46106211499329
SL-14 R/B               
1 11267U 79011B   26018.81338005  .00000627  00000+0  59555-4 0  9997
2 11267  82.5259 143.8846 0015103 220.1961 139.8143 14.91827224521349
SL-8 R/B                
1 11574U 79089B   26018.87555782  .00000371  00000+0  12034-3 0  9998
2 11574  74.0678 183.2462 0015664   4.0641 356.0639 14.42310653428921
SL-14 R/B               
1 11672U 80005B   26018.92790887  .00000630  00000+0  61309-4 0  9998
2 11672  82.5152 354.4246 0015050 335.2174  24.8320 14.90845597469073
SL-8 R/B                
1 12139U 81003B   26018.90170619  .00026935  00000+0  71424-3 0  9993
2 12139  82.9394 335.9930 0270322 352.6062   7.1210 15.08678737307165
SL-3 R/B                
1 12465U 81046B   26018.92436967  .00011253  00000+0  27500-3 0  9998
2 12465  81.2333 349.4208 0018987 186.8494 173.2492 15.40492362430767
SL-3 R/B                
1 12904U 81103B   26018.97385510  .00005487  00000+0  24777-3 0  9997
2 12904  81.1591 271.7352 0014475  91.4231 268.8658 15.20711066965676
SL-3 R/B                
1 13068U 82013B   26018.93794392  .00003641  00000+0  15997-3 0  9992
2 13068  81.1720 219.0564 0022648 349.8547  10.2223 15.21431081396787
SL-3 R/B                
1 13154U 82039B   26018.95558966  .00002475  00000+0  15030-3 0  9995
2 13154  81.1671 273.2699 0029975 127.2114 233.1854 15.09763692374130
